NORAD_CAT_ID,OBJECT_NAME,OBJECT_TYPE,EPOCH,MEAN_MOTION,ECCENTRICITY,INCLINATION,RA_OF_ASC_NODE,ARG_OF_PERICENTER,MEAN_ANOMALY,BSTAR,MEAN_MOTION_DOT,MEAN_MOTION_DDOT,TLE_LINE0,TLE_LINE1,TLE_LINE2,SEMIMAJOR_AXIS,PERIOD,APOGEE,PERIGEE,DECAYED
55920.0,STARLINK-5862,PAYLOAD,2023-11-24 04:13:24,14.98321628,0.0002446,69.9994,233.8008,252.878,107.2111,-9.8368e-05,-1.266e-05,0.0,0 STARLINK-5862,1 55920U 23037G   23328.17597301 -.00001266  00000-0 -98368-4 0  9992,2 55920  69.9994 233.8008 0002446 252.8780 107.2111 14.98321628 39011,6950.219,96.108,573.784,570.384,0.0
55920.0,STARLINK-5862,PAYLOAD,2023-11-24 20:14:44,14.98326342,0.0002888,70.0006,232.116,277.0756,83.0074,2.5683e-05,2.13e-06,0.0,0 STARLINK-5862,1 55920U 23037G   23328.84356810  .00000213  00000-0  25683-4 0  9993,2 55920  70.0006 232.1160 0002888 277.0756  83.0074 14.98326342 39119,6950.204,96.107,574.076,570.062,0.0
55920.0,STARLINK-5862,PAYLOAD,2023-11-24 21:50:51,14.98334397,0.0002615,69.9999,231.9489,261.7123,98.374,5.9092e-05,6.12e-06,0.0,0 STARLINK-5862,1 55920U 23037G   23328.91032208  .00000612  00000-0  59092-4 0  9997,2 55920  69.9999 231.9489 0002615 261.7123  98.3740 14.98334397 38784,6950.179,96.107,573.862,570.227,0.0
55920.0,STARLINK-5862,PAYLOAD,2023-11-25 02:39:15,14.98335476,0.0002501,70.0006,231.4449,248.1143,111.975,8.8811e-05,9.67e-06,0.0,0 STARLINK-5862,1 55920U 23037G   23329.11059951  .00000967  00000-0  88811-4 0  9998,2 55920  70.0006 231.4449 0002501 248.1143 111.9750 14.98335476 39156,6950.176,96.107,573.779,570.303,0.0
55920.0,STARLINK-5862,PAYLOAD,2023-11-25 04:15:23,14.98336223,0.0002579,70.0005,231.2759,255.8654,104.2219,9.7887e-05,1.075e-05,0.0,0 STARLINK-5862,1 55920U 23037G   23329.17735880  .00001075  00000-0  97887-4 0  9990,2 55920  70.0005 231.2759 0002579 255.8654 104.2219 14.98336223 38823,6950.174,96.107,573.831,570.246,0.0
55920.0,STARLINK-5862,PAYLOAD,2023-11-25 21:52:52,14.98313745,0.0002322,70.0013,229.4244,255.4469,104.6432,0.00047866,5.62e-05,0.0,0 STARLINK-5862,1 55920U 23037G   23329.91172075  .00005620  00000-0  47866-3 0  9994,2 55920  70.0013 229.4244 0002322 255.4469 104.6432 14.98313745 38933,6950.243,96.108,573.722,570.494,0.0
55920.0,STARLINK-5862,PAYLOAD,2023-11-26 02:41:16,14.98328658,0.0002206,70.0014,228.9205,270.8154,89.2752,0.00052811,6.214e-05,0.0,0 STARLINK-5862,1 55920U 23037G   23330.11199261  .00006214  00000-0  52811-3 0  9990,2 55920  70.0014 228.9205 0002206 270.8154  89.2752 14.98328658 39302,6950.197,96.107,573.595,570.529,0.0
55920.0,STARLINK-5862,PAYLOAD,2023-11-26 18:42:38,14.98321969,0.0002551,70.0022,227.2383,239.8426,120.2481,-0.00013515,-1.705e-05,0.0,0 STARLINK-5862,1 55920U 23037G   23330.77961182 -.00001705  00000-0 -13515-3 0  9991,2 55920  70.0022 227.2383 0002551 239.8426 120.2481 14.98321969 39404,6950.218,96.108,573.856,570.31,0.0
55920.0,STARLINK-5862,PAYLOAD,2023-11-26 21:54:55,14.98310814,0.0002607,70.0007,226.9003,246.4403,113.6483,-0.0002711,-3.324e-05,0.0,0 STARLINK-5862,1 55920U 23037G   23330.91314231 -.00003324  00000-0 -27110-3 0  9999,2 55920  70.0007 226.9003 0002607 246.4403 113.6483 14.98310814 39082,6950.252,96.108,573.929,570.305,0.0
55920.0,STARLINK-5862,PAYLOAD,2023-11-27 02:43:19,14.98316311,0.0002262,70.0004,226.3937,278.8997,81.1906,-0.0001667,-2.081e-05,0.0,0 STARLINK-5862,1 55920U 23037G   23331.11342156 -.00002081  00000-0 -16670-3 0  9997,2 55920  70.0004 226.3937 0002262 278.8997  81.1906 14.98316311 39451,6950.235,96.108,573.672,570.528,0.0
55920.0,STARLINK-5862,PAYLOAD,2023-11-27 18:44:39,14.98325721,0.0002634,70.0021,224.7129,255.8987,104.188,-0.00016908,-2.109e-05,0.0,0 STARLINK-5862,1 55920U 23037G   23331.78101640 -.00002109  00000-0 -16908-3 0  9996,2 55920  70.0021 224.7129 0002634 255.8987 104.1880 14.98325721 39555,6950.206,96.107,573.902,570.24,0.0
55920.0,STARLINK-5862,PAYLOAD,2023-11-27 21:56:55,14.98332599,0.000247,70.0018,224.3768,233.8607,126.2324,-0.00011451,-1.459e-05,0.0,0 STARLINK-5862,1 55920U 23037G   23331.91453020 -.00001459  00000-0 -11451-3 0  9998,2 55920  70.0018 224.3768 0002470 233.8607 126.2324 14.98332599 39233,6950.185,96.107,573.767,570.333,0.0
55920.0,STARLINK-5862,PAYLOAD,2023-11-28 02:45:19,14.98335279,0.000169,70.0012,223.8704,258.5398,101.5571,-6.3307e-05,-8.48e-06,0.0,0 STARLINK-5862,1 55920U 23037G   23332.11480993 -.00000848  00000-0 -63307-4 0  9999,2 55920  70.0012 223.8704 0001690 258.5398 101.5571 14.98335279 39604,6950.177,96.107,573.216,570.867,0.0
55920.0,STARLINK-5862,PAYLOAD,2023-11-28 21:58:55,14.98321776,0.0002812,69.9998,221.8491,253.6129,106.4721,0.00030909,3.596e-05,0.0,0 STARLINK-5862,1 55920U 23037G   23332.91592482  .00003596  00000-0  30909-3 0  9996,2 55920  69.9998 221.8491 0002812 253.6129 106.4721 14.98321776 39383,6950.218,96.108,574.038,570.129,0.0
55920.0,STARLINK-5862,PAYLOAD,2023-11-29 02:47:19,14.98328097,0.0002694,69.9998,221.3433,251.7254,108.3612,0.00036909,4.313e-05,0.0,0 STARLINK-5862,1 55920U 23037G   23333.11619952  .00004313  00000-0  36909-3 0  9995,2 55920  69.9998 221.3433 0002694 251.7254 108.3612 14.98328097 39754,6950.199,96.107,573.936,570.191,0.0
55920.0,STARLINK-5862,PAYLOAD,2023-11-29 18:48:40,14.98330452,0.0002213,70.0014,219.6611,244.9757,115.1173,8.3513e-05,9.04e-06,0.0,0 STARLINK-5862,1 55920U 23037G   23333.78380611  .00000904  00000-0  83513-4 0  9991,2 55920  70.0014 219.6611 0002213 244.9757 115.1173 14.98330452 39850,6950.191,96.107,573.595,570.518,0.0
55920.0,STARLINK-5862,PAYLOAD,2023-12-01 02:51:22,14.98332409,0.0002445,70.0002,216.2944,254.5548,105.5341,-7.6455e-05,-1.005e-05,0.0,0 STARLINK-5862,1 55920U 23037G   23335.11900660 -.00001005  00000-0 -76455-4 0  9994,2 55920  70.0002 216.2944 0002445 254.5548 105.5341 14.98332409 40059,6950.185,96.107,573.75,570.351,0.0
55920.0,STARLINK-5862,PAYLOAD,2023-12-01 22:04:58,14.98336701,0.000243,69.9998,214.275,258.8555,101.2331,8.9612e-05,9.77e-06,0.0,0 STARLINK-5862,1 55920U 23037G   23335.92011796  .00000977  00000-0  89612-4 0  9990,2 55920  69.9998 214.2750 0002430 258.8555 101.2331 14.98336701 39837,6950.172,96.107,573.726,570.348,0.0
55920.0,STARLINK-5862,PAYLOAD,2023-12-02 01:17:13,14.98341305,0.0002436,70.0002,213.9398,250.6321,109.4574,0.00014831,1.678e-05,0.0,0 STARLINK-5862,1 55920U 23037G   23336.05363277  .00001678  00000-0  14831-3 0  9998,2 55920  70.0002 213.9398 0002436 250.6321 109.4574 14.98341305 40193,6950.158,96.106,573.716,570.33,0.0
55920.0,STARLINK-5862,PAYLOAD,2023-12-02 02:53:21,14.98342069,0.0002461,70.0001,213.7711,252.3019,107.7872,0.00015353,1.74e-05,0.0,0 STARLINK-5862,1 55920U 23037G   23336.12039160  .00001740  00000-0  15353-3 0  9997,2 55920  70.0001 213.7711 0002461 252.3019 107.7872 14.98342069 39862,6950.156,96.106,573.731,570.31,0.0
55920.0,STARLINK-5862,PAYLOAD,2023-12-02 18:54:43,14.98322184,0.0003031,70.0002,212.0901,278.6137,81.4678,-4.1391e-05,-5.87e-06,0.0,0 STARLINK-5862,1 55920U 23037G   23336.78800879 -.00000587  00000-0 -41391-4 0  9994,2 55920  70.0002 212.0901 0003031 278.6137  81.4678 14.98322184 40301,6950.217,96.108,574.189,569.975,0.0
55920.0,STARLINK-5862,PAYLOAD,2023-12-02 22:07:00,14.98320489,0.000229,70.0004,211.7519,245.9771,114.1149,-5.4664e-05,-7.45e-06,0.0,0 STARLINK-5862,1 55920U 23037G   23336.92152934 -.00000745  00000-0 -54664-4 0  9995,2 55920  70.0004 211.7519 0002290 245.9771 114.1149 14.98320489 39986,6950.222,96.108,573.679,570.496,0.0
55920.0,STARLINK-5862,PAYLOAD,2023-12-03 01:19:16,14.98320054,0.0002291,70.0003,211.4154,249.0379,111.0535,-5.9829e-05,-8.06e-06,0.0,0 STARLINK-5862,1 55920U 23037G   23337.05505064 -.00000806  00000-0 -59829-4 0  9992,2 55920  70.0003 211.4154 0002291 249.0379 111.0535 14.98320054 40005,6950.224,96.108,573.681,570.496,0.0
55920.0,STARLINK-5862,PAYLOAD,2023-12-03 20:32:54,14.98323873,0.0002221,70.0016,209.3974,225.0972,135.0007,-0.0001275,-1.614e-05,0.0,0 STARLINK-5862,1 55920U 23037G   23337.85618195 -.00001614  00000-0 -12750-3 0  9999,2 55920  70.0016 209.3974 0002221 225.0972 135.0007 14.98323873 40463,6950.212,96.107,573.62,570.533,0.0
55920.0,STARLINK-5862,PAYLOAD,2023-12-04 01:21:17,14.98334106,0.0002758,69.9986,208.8878,266.9619,93.1225,-5.1508e-05,-7.08e-06,0.0,0 STARLINK-5862,1 55920U 23037G   23338.05645488 -.00000708  00000-0 -51508-4 0  9995,2 55920  69.9986 208.8878 0002758 266.9619  93.1225 14.98334106 40490,6950.18,96.107,573.962,570.128,0.0
55920.0,STARLINK-5862,PAYLOAD,2023-12-04 15:46:30,14.98326095,0.0003258,69.998,207.3726,277.2142,82.8647,0.00020665,2.373e-05,0.0,0 STARLINK-5862,1 55920U 23037G   23338.65729206  .00002373  00000-0  20665-3 0  9999,2 55920  69.9980 207.3726 0003258 277.2142  82.8647 14.98326095 40246,6950.205,96.107,574.334,569.806,0.0
55920.0,STARLINK-5862,PAYLOAD,2023-12-05 01:23:17,14.98337911,0.0002856,69.9984,206.3633,271.0109,89.0722,0.00023447,2.706e-05,0.0,0 STARLINK-5862,1 55920U 23037G   23339.05784379  .00002706  00000-0  23447-3 0  9997,2 55920  69.9984 206.3633 0002856 271.0109  89.0722 14.98337911 40640,6950.168,96.106,574.018,570.048,0.0
55920.0,STARLINK-5862,PAYLOAD,2023-12-06 01:25:18,14.98342724,0.0002816,69.9987,203.8387,276.5921,83.4918,0.00015177,1.719e-05,0.0,0 STARLINK-5862,1 55920U 23037G   23340.05924172  .00001719  00000-0  15177-3 0  9990,2 55920  69.9987 203.8387 0002816 276.5921  83.4918 14.98342724 40798,6950.154,96.106,573.976,570.061,0.0
55920.0,STARLINK-5862,PAYLOAD,2023-12-06 22:15:03,14.98337395,0.0002663,70.0013,201.6481,272.1487,87.9368,-0.00012595,-1.596e-05,0.0,0 STARLINK-5862,1 55920U 23037G   23340.92712524 -.00001596  00000-0 -12595-3 0  9998,2 55920  70.0013 201.6481 0002663 272.1487  87.9368 14.98337395 40584,6950.17,96.107,573.886,570.184,0.0
55920.0,STARLINK-5862,PAYLOAD,2023-12-07 01:27:20,14.98333999,0.0002672,69.9997,201.3139,276.6432,83.4423,-0.00014904,-1.871e-05,0.0,0 STARLINK-5862,1 55920U 23037G   23341.06064825 -.00001871  00000-0 -14904-3 0  9990,2 55920  69.9997 201.3139 0002672 276.6432  83.4423 14.98333999 40947,6950.181,96.107,573.903,570.188,0.0
